{
    "links": {
        "self": "http://www.neowsapp.com/rest/v1/neo/3031814?api_key=iIulBulltgU6a56xZRHN4H3l9WmuAYTsLGpBGhQ2"
    },
    "id": "3031814",
    "neo_reference_id": "3031814",
    "name": "(2000 DO8)",
    "designation": "2000 DO8",
    "nasa_jpl_url": "http://ssd.jpl.nasa.gov/sbdb.cgi?sstr=3031814",
    "absolute_magnitude_h": 24.8,
    "estimated_diameter": {
        "kilometers": {
            "estimated_diameter_min": 0.0291443905,
            "estimated_diameter_max": 0.0651688382
        },
        "meters": {
            "estimated_diameter_min": 29.1443904535,
            "estimated_diameter_max": 65.1688382168
        },
        "miles": {
            "estimated_diameter_min": 0.018109479,
            "estimated_diameter_max": 0.0404940262
        },
        "feet": {
            "estimated_diameter_min": 95.6180819754,
            "estimated_diameter_max": 213.8085311752
        }
    },
    "is_potentially_hazardous_asteroid": false,
    "close_approach_data": [
        {
            "close_approach_date": "1992-06-04",
            "close_approach_date_full": "1992-Jun-04 13:39",
            "epoch_date_close_approach": 707665140000,
            "relative_velocity": {
                "kilometers_per_second": "21.3061742804",
                "kilometers_per_hour": "76702.227409399",
                "miles_per_hour": "47659.7812478013"
            },
            "miss_distance": {
                "astronomical": "0.3854230849",
                "lunar": "149.9295800261",
                "kilometers": "57658472.549869163",
                "miles": "35827313.5078859294"
            },
            "orbiting_body": "Earth"
        },
        {
            "close_approach_date": "2000-03-04",
            "close_approach_date_full": "2000-Mar-04 22:39",
            "epoch_date_close_approach": 952209540000,
            "relative_velocity": {
                "kilometers_per_second": "10.0821832325",
                "kilometers_per_hour": "36295.8596370886",
                "miles_per_hour": "22552.8356728343"
            },
            "miss_distance": {
                "astronomical": "0.0108156129",
                "lunar": "4.2072734181",
                "kilometers": "1617992.652584523",
                "miles": "1005374.0145034974"
            },
            "orbiting_body": "Earth"
        }
    ],
    "orbital_data": {
        "orbit_id": "12",
        "orbit_determination_date": "2017-04-06 09:17:06",
        "first_observation_date": "2000-02-28",
        "last_observation_date": "2000-03-04",
        "data_arc_in_days": 5,
        "observations_used": 55,
        "orbit_uncertainty": "7",
        "minimum_orbit_intersection": ".00385737",
        "jupiter_tisserand_invariant": "3.190",
        "epoch_osculation": "2459000.5",
        "eccentricity": ".6162523793722022",
        "semi_major_axis": "2.472360409915845",
        "inclination": ".2856344124521826",
        "ascending_node_longitude": "94.42059660528528",
        "orbital_period": "1419.927262696366",
        "perihelion_distance": ".9487624246395724",
        "perihelion_argument": "96.92692105225098",
        "aphelion_distance": "3.995958395192118",
        "perihelion_time": "2458740.531030352873",
        "mean_anomaly": "65.91100229686792",
        "mean_motion": ".2535341136533847",
        "equinox": "J2000",
        "orbit_class": {
            "orbit_class_type": "APO",
            "orbit_class_description": "Near-Earth asteroid orbits which cross the Earth’s orbit similar to that of 1862 Apollo",
            "orbit_class_range": "a (semi-major axis) > 1.0 AU; q (perihelion) < 1.017 AU"
        }
    },
    "is_sentry_object": false
}